CCSDS_OEM_VERS = 1.0
CREATION_DATE  = 2017-05-11T11:55:25
ORIGINATOR     = GMAT USER

META_START
OBJECT_NAME          = MOPSSat_alt_35785_km_RAAN_270_059
OBJECT_ID            = SatId
CENTER_NAME          = Earth
REF_FRAME            = EME2000
TIME_SYSTEM          = UTC
START_TIME           = 2017-01-01T00:00:00.000
USEABLE_START_TIME   = 2017-01-01T00:00:00.000
USEABLE_STOP_TIME    = 2017-01-02T00:00:00.000
STOP_TIME            = 2017-01-02T00:00:00.000
INTERPOLATION        = Lagrange
INTERPOLATION_DEGREE = 7 
META_STOP


                                                                                   

2017-01-01T23:22:30.000  -6.150458030264595e+03  -4.170889364209729e+04   6.164711053574017e-01   3.042039051234406e+00  -4.485679340491306e-01   4.030909802719085e-04
2017-01-01T23:22:40.000  -6.120036006673353e+03  -4.171336822792717e+04   6.205017173164620e-01   3.042365455436835e+00  -4.463492006768418e-01   4.030313797326611e-04
2017-01-01T23:22:50.000  -6.089610727404000e+03  -4.171782062519503e+04   6.245317320490038e-01   3.042690241343617e+00  -4.441302299131467e-01   4.029715422000421e-04
2017-01-01T23:23:00.000  -6.059182208401570e+03  -4.172225083156800e+04   6.285611472169365e-01   3.043013408784489e+00  -4.419110229211072e-01   4.029114677151019e-04
2017-01-01T23:23:10.000  -6.028750465527301e+03  -4.172665884473788e+04   6.325899604939322e-01   3.043334957590996e+00  -4.396915808576743e-01   4.028511563188712e-04
2017-01-01T23:23:20.000  -5.998315514952305e+03  -4.173104466236107e+04   6.366181695131653e-01   3.043654887592094e+00  -4.374719049023995e-01   4.027906080530899e-04
2017-01-01T23:23:30.000  -5.967877372865432e+03  -4.173540828210414e+04   6.406457719061377e-01   3.043973198617485e+00  -4.352519962361266e-01   4.027298229596799e-04
2017-01-01T23:23:40.000  -5.937436055473059e+03  -4.173974970164250e+04   6.446727653026467e-01   3.044289890497516e+00  -4.330318560409790e-01   4.026688010807261e-04
2017-01-01T23:23:50.000  -5.906991579292212e+03  -4.174406891862171e+04   6.486991472921462e-01   3.044604963060353e+00  -4.308114855217365e-01   4.026075424591138e-04
2017-01-01T23:24:00.000  -5.876543960755910e+03  -4.174836593071086e+04   6.527249154758262e-01   3.044918416135880e+00  -4.285908858770519e-01   4.025460471376892e-04
2017-01-01T23:24:10.000  -5.846093216371525e+03  -4.175264073558070e+04   6.567500674456984e-01   3.045230249554103e+00  -4.263700583110015e-01   4.024843151595911e-04
2017-01-01T23:24:20.000  -5.815639362022102e+03  -4.175689333100188e+04   6.607746008769551e-01   3.045540463152320e+00  -4.241490039821280e-01   4.024223465668144e-04
2017-01-01T23:24:30.000  -5.785182413666762e+03  -4.176112371474635e+04   6.647985134353728e-01   3.045849056767911e+00  -4.219277240545231e-01   4.023601414016483e-04
2017-01-01T23:24:40.000  -5.754722387159924e+03  -4.176533188461294e+04   6.688218028012233e-01   3.046156030240230e+00  -4.197062196846422e-01   4.022976997063053e-04
2017-01-01T23:24:50.000  -5.724259298737310e+03  -4.176951783835774e+04   6.728444666049644e-01   3.046461383405504e+00  -4.174844920567506e-01   4.022350215239120e-04
2017-01-01T23:25:00.000  -5.693793164614925e+03  -4.177368157375201e+04   6.768665024803224e-01   3.046765116101072e+00  -4.152625423536757e-01   4.021721068976929e-04
2017-01-01T23:25:10.000  -5.663324001078542e+03  -4.177782308856913e+04   6.808879080524418e-01   3.047067228164427e+00  -4.130403717633330e-01   4.021089558711527e-04
2017-01-01T23:25:20.000  -5.632851824459565e+03  -4.178194238058959e+04   6.849086809411503e-01   3.047367719433578e+00  -4.108179814769667e-01   4.020455684880248e-04
2017-01-01T23:25:30.000  -5.602376651104491e+03  -4.178603944760379e+04   6.889288187649258e-01   3.047666589747259e+00  -4.085953726869218e-01   4.019819447922142e-04
2017-01-01T23:25:40.000  -5.571898497363943e+03  -4.179011428741369e+04   6.929483191423534e-01   3.047963838945045e+00  -4.063725465858443e-01   4.019180848277679e-04
2017-01-01T23:25:50.000  -5.541417379483749e+03  -4.179416689784802e+04   6.969671797065219e-01   3.048259466868472e+00  -4.041495043587381e-01   4.018539886386766e-04
2017-01-01T23:26:00.000  -5.510933313677490e+03  -4.179819727675186e+04   7.009853980954147e-01   3.048553473360254e+00  -4.019262471882548e-01   4.017896562689948e-04
2017-01-01T23:26:10.000  -5.480446316126509e+03  -4.180220542198663e+04   7.050029719519192e-01   3.048845858264310e+00  -3.997027762546954e-01   4.017250877628520e-04
2017-01-01T23:26:20.000  -5.449956402907108e+03  -4.180619133143884e+04   7.090198989333799e-01   3.049136621426385e+00  -3.974790927307004e-01   4.016602831642676e-04
2017-01-01T23:26:30.000  -5.419463590099645e+03  -4.181015500300656e+04   7.130361766972519e-01   3.049425762693062e+00  -3.952551977892058e-01   4.015952425174095e-04
2017-01-01T23:26:40.000  -5.388967893799550e+03  -4.181409643459789e+04   7.170518028996586e-01   3.049713281911666e+00  -3.930310926042482e-01   4.015299658666127e-04
2017-01-01T23:26:50.000  -5.358469330147507e+03  -4.181801562412585e+04   7.210667751913524e-01   3.049999178929872e+00  -3.908067783531639e-01   4.014644532564493e-04
2017-01-01T23:27:00.000  -5.327967915354038e+03  -4.182191256950689e+04   7.250810912145575e-01   3.050283453595606e+00  -3.885822562183830e-01   4.013987047317791e-04
2017-01-01T23:27:10.000  -5.297463665609705e+03  -4.182578726867159e+04   7.290947486147549e-01   3.050566105757833e+00  -3.863575273808801e-01   4.013327203375543e-04
2017-01-01T23:27:20.000  -5.266956597487313e+03  -4.182963971951584e+04   7.331077449878657e-01   3.050847135262978e+00  -3.841325930495083e-01   4.012665001196951e-04
2017-01-01T23:27:30.000  -5.236446727454561e+03  -4.183346991996060e+04   7.371200779442733e-01   3.051126541959297e+00  -3.819074544254549e-01   4.012000441240300e-04
2017-01-01T23:27:40.000  -5.205934072055237e+03  -4.183727786792935e+04   7.411317450850103e-01   3.051404325695236e+00  -3.796821127154561e-01   4.011333523966893e-04
2017-01-01T23:27:50.000  -5.175418647207355e+03  -4.184106356143605e+04   7.451427440940461e-01   3.051680486325832e+00  -3.774565690806109e-01   4.010664249825893e-04
2017-01-01T23:28:00.000  -5.144900468903202e+03  -4.184482699849721e+04   7.491530726462291e-01   3.051955023706313e+00  -3.752308246874344e-01   4.009992619269414e-04
2017-01-01T23:28:10.000  -5.114379553050750e+03  -4.184856817715226e+04   7.531627284281596e-01   3.052227937693581e+00  -3.730048806962931e-01   4.009318632749161e-04
2017-01-01T23:28:20.000  -5.083855915868558e+03  -4.185228709541202e+04   7.571717090861692e-01   3.052499228142448e+00  -3.707787382902051e-01   4.008642290724718e-04
2017-01-01T23:28:30.000  -5.053329573592679e+03  -4.185598375129782e+04   7.611800122649697e-01   3.052768894908489e+00  -3.685523986534648e-01   4.007963593657507e-04
2017-01-01T23:28:40.000  -5.022800542476502e+03  -4.185965814284029e+04   7.651876356076206e-01   3.053036937847963e+00  -3.663258629716310e-01   4.007282542010629e-04
2017-01-01T23:28:50.000  -4.992268839084645e+03  -4.186331026804687e+04   7.691945767170826e-01   3.053303356815440e+00  -3.640991324529619e-01   4.006599136255725e-04
2017-01-01T23:29:00.000  -4.961734479897222e+03  -4.186694012494682e+04   7.732008332080387e-01   3.053568151667072e+00  -3.618722082995520e-01   4.005913376863885e-04
2017-01-01T23:29:10.000  -4.931197481465684e+03  -4.187054771157300e+04   7.772064026864708e-01   3.053831322259283e+00  -3.596450917186991e-01   4.005225264309171e-04
2017-01-01T23:29:20.000  -4.900657859723712e+03  -4.187413302604351e+04   7.812112828400573e-01   3.054092868454707e+00  -3.574177838726461e-01   4.004534799053228e-04
2017-01-01T23:29:30.000  -4.870115630676276e+03  -4.187769606647988e+04   7.852154713477706e-01   3.054352790116237e+00  -3.551902859288357e-01   4.003841981560635e-04
2017-01-01T23:29:40.000  -4.839570810243882e+03  -4.188123683102602e+04   7.892189659003320e-01   3.054611087108392e+00  -3.529625990485506e-01   4.003146812295507e-04
2017-01-01T23:29:50.000  -4.809023414657808e+03  -4.188475531779930e+04   7.932217641482666e-01   3.054867759293756e+00  -3.507347244157383e-01   4.002449291729983e-04
2017-01-01T23:30:00.000  -4.778473460166751e+03  -4.188825152492763e+04   7.972238637404955e-01   3.055122806535683e+00  -3.485066632156180e-01   4.001749420338060e-04
2017-01-01T23:30:10.000  -4.747920963036688e+03  -4.189172545054838e+04   8.012252623243032e-01   3.055376228698218e+00  -3.462784166346686e-01   4.001047198595406e-04
2017-01-01T23:30:20.000  -4.717365939844970e+03  -4.189517709277786e+04   8.052259575069535e-01   3.055628025643866e+00  -3.440499858820785e-01   4.000342626986617e-04
2017-01-01T23:30:30.000  -4.686808407084306e+03  -4.189860644975345e+04   8.092259469074266e-01   3.055878197236674e+00  -3.418213721608630e-01   3.999635705995639e-04
2017-01-01T23:30:40.000  -4.656248381321672e+03  -4.190201351961644e+04   8.132252281356427e-01   3.056126743340973e+00  -3.395925766794545e-01   3.998926436109545e-04
2017-01-01T23:30:50.000  -4.625685878497135e+03  -4.190539830059020e+04   8.172237988842247e-01   3.056373663827074e+00  -3.373636006005636e-01   3.998214817802079e-04
2017-01-01T23:31:00.000  -4.595120914626770e+03  -4.190876079090140e+04   8.212216568364981e-01   3.056618958565541e+00  -3.351344450924454e-01   3.997500851550145e-04
2017-01-01T23:31:10.000  -4.564553505621226e+03  -4.191210098880078e+04   8.252187996902487e-01   3.056862627428687e+00  -3.329051113156651e-01   3.996784537829549e-04
2017-01-01T23:31:20.000  -4.533983667773516e+03  -4.191541889250716e+04   8.292152250938203e-01   3.057104670286495e+00  -3.306756004586754e-01   3.996065877126388e-04
2017-01-01T23:31:30.000  -4.503411417356516e+03  -4.191871450025390e+04   8.332109306988629e-01   3.057345087010013e+00  -3.284459137084605e-01   3.995344869927644e-04
